{"type": "FeatureCollection", "features": [{"type": "Feature", "properties": {"norad_id": 2807, "name": "OPS 7218 (TRANSIT 16)", "group": "nnss", "lat": -18.306176562324282, "lon": -6.187361107114555, "alt_km": 1083.855588534595, "timestamp": "2025-12-15T14:57:58.083451+00:00", "meta": {"OBJECT_NAME": "OPS 7218 (TRANSIT 16)", "OBJECT_ID": "1967-048A", "EPOCH": "2025-12-14T18:34:38.360640", "MEAN_MOTION": 13.50722587, "ECCENTRICITY": 0.0022033, "INCLINATION": 89.6733, "RA_OF_ASC_NODE": 353.9488, "ARG_OF_PERICENTER": 108.6359, "MEAN_ANOMALY": 64.8925, "EPHEMERIS_TYPE": 0, "CLASSIFICATION_TYPE": "U", "NORAD_CAT_ID": 2807, "ELEMENT_SET_NO": 999, "REV_AT_EPOCH": 88303, "BSTAR": 0.00018276667, "MEAN_MOTION_DOT": 1.28e-06, "MEAN_MOTION_DDOT": 0}, "tle": {"line1": "1 02807U 67048A   25348.77405510  .00000128  00000+0  18277-3 0  9991", "line2": "2 02807  89.6733 353.9488 0022033 108.6359  64.8925 13.50722587883033"}}, "geometry": {"type": "Point", "coordinates": [-6.187361107114555, -18.306176562324282]}}, {"type": "Feature", "properties": {"norad_id": 2965, "name": "OPS 4947 (TRANSIT 17)", "group": "nnss", "lat": 74.52532814779713, "lon": 26.929579430274842, "alt_km": 1082.772670088133, "timestamp": "2025-12-15T14:57:58.083473+00:00", "meta": {"OBJECT_NAME": "OPS 4947 (TRANSIT 17)", "OBJECT_ID": "1967-092A", "EPOCH": "2025-12-14T16:08:25.129248", "MEAN_MOTION": 13.53453942, "ECCENTRICITY": 0.00462991, "INCLINATION": 89.2495, "RA_OF_ASC_NODE": 24.2883, "ARG_OF_PERICENTER": 228.7003, "MEAN_ANOMALY": 254.8338, "EPHEMERIS_TYPE": 0, "CLASSIFICATION_TYPE": "U", "NORAD_CAT_ID": 2965, "ELEMENT_SET_NO": 999, "REV_AT_EPOCH": 87123, "BSTAR": 0.00021683981, "MEAN_MOTION_DOT": 1.58e-06, "MEAN_MOTION_DDOT": 0}, "tle": {"line1": "1 02965U 67092A   25348.67251307  .00000158  00000+0  21684-3 0  9996", "line2": "2 02965  89.2495  24.2883 0046299 228.7003 254.8338 13.53453942871233"}}, "geometry": {"type": "Point", "coordinates": [26.929579430274842, 74.52532814779713]}}, {"type": "Feature", "properties": {"norad_id": 3133, "name": "OPS 7034 (TRANSIT 18)", "group": "nnss", "lat": -25.13193447632006, "lon": 93.63383196061453, "alt_km": 1032.3968971583436, "timestamp": "2025-12-15T14:57:58.083485+00:00", "meta": {"OBJECT_NAME": "OPS 7034 (TRANSIT 18)", "OBJECT_ID": "1968-012A", "EPOCH": "2025-12-14T20:31:22.265184", "MEAN_MOTION": 13.51566099, "ECCENTRICITY": 0.0074059, "INCLINATION": 90.028, "RA_OF_ASC_NODE": 273.6448, "ARG_OF_PERICENTER": 163.0106, "MEAN_ANOMALY": 264.5526, "EPHEMERIS_TYPE": 0, "CLASSIFICATION_TYPE": "U", "NORAD_CAT_ID": 3133, "ELEMENT_SET_NO": 999, "REV_AT_EPOCH": 56947, "BSTAR": 0.0001510339, "MEAN_MOTION_DOT": 1.1e-06, "MEAN_MOTION_DDOT": 0}, "tle": {"line1": "1 03133U 68012A   25348.85511881  .00000110  00000+0  15103-3 0  9990", "line2": "2 03133  90.0280 273.6448 0074059 163.0106 264.5526 13.51566099569473"}}, "geometry": {"type": "Point", "coordinates": [93.63383196061453, -25.13193447632006]}}, {"type": "Feature", "properties": {"norad_id": 4507, "name": "NNSS 19 (TRANSIT 19)", "group": "nnss", "lat": 8.391582255767469, "lon": 54.53668049003676, "alt_km": 1117.938135227283, "timestamp": "2025-12-15T14:57:58.083495+00:00", "meta": {"OBJECT_NAME": "NNSS 19 (TRANSIT 19)", "OBJECT_ID": "1970-067A", "EPOCH": "2025-12-14T22:06:29.146752", "MEAN_MOTION": 13.5131551, "ECCENTRICITY": 0.01704286, "INCLINATION": 90.0054, "RA_OF_ASC_NODE": 234.5355, "ARG_OF_PERICENTER": 287.0016, "MEAN_ANOMALY": 71.2521, "EPHEMERIS_TYPE": 0, "CLASSIFICATION_TYPE": "U", "NORAD_CAT_ID": 4507, "ELEMENT_SET_NO": 999, "REV_AT_EPOCH": 72251, "BSTAR": 0.0001402407, "MEAN_MOTION_DOT": 1.07e-06, "MEAN_MOTION_DDOT": 0}, "tle": {"line1": "1 04507U 70067A   25348.92117068  .00000107  00000+0  14024-3 0  9993", "line2": "2 04507  90.0054 234.5355 0170428 287.0016  71.2521 13.51315510722519"}}, "geometry": {"type": "Point", "coordinates": [54.53668049003676, 8.391582255767469]}}, {"type": "Feature", "properties": {"norad_id": 6909, "name": "NNSS 20 (TRANSIT 20)", "group": "nnss", "lat": 84.6827326752619, "lon": 73.46584204002018, "alt_km": 882.4753737199535, "timestamp": "2025-12-15T14:57:58.083506+00:00", "meta": {"OBJECT_NAME": "NNSS 20 (TRANSIT 20)", "OBJECT_ID": "1973-081A", "EPOCH": "2025-12-14T19:15:12.693600", "MEAN_MOTION": 13.71435217, "ECCENTRICITY": 0.01566172, "INCLINATION": 89.8563, "RA_OF_ASC_NODE": 255.0233, "ARG_OF_PERICENTER": 72.2135, "MEAN_ANOMALY": 289.6047, "EPHEMERIS_TYPE": 0, "CLASSIFICATION_TYPE": "U", "NORAD_CAT_ID": 6909, "ELEMENT_SET_NO": 999, "REV_AT_EPOCH": 80389, "BSTAR": 0.00026960944, "MEAN_MOTION_DOT": 2.76e-06, "MEAN_MOTION_DDOT": 0}, "tle": {"line1": "1 06909U 73081A   25348.80223025  .00000276  00000+0  26961-3 0  9998", "line2": "2 06909  89.8563 255.0233 0156617  72.2135 289.6047 13.71435217803899"}}, "geometry": {"type": "Point", "coordinates": [73.46584204002018, 84.6827326752619]}}, {"type": "Feature", "properties": {"norad_id": 10457, "name": "TRANSAT", "group": "nnss", "lat": 26.334639758187993, "lon": -101.67932265471482, "alt_km": 1058.2741805034502, "timestamp": "2025-12-15T14:57:58.083516+00:00", "meta": {"OBJECT_NAME": "TRANSAT", "OBJECT_ID": "1977-106A", "EPOCH": "2025-12-14T19:10:47.823168", "MEAN_MOTION": 13.4894395, "ECCENTRICITY": 0.00255933, "INCLINATION": 89.6482, "RA_OF_ASC_NODE": 78.5241, "ARG_OF_PERICENTER": 183.516, "MEAN_ANOMALY": 288.9959, "EPHEMERIS_TYPE": 0, "CLASSIFICATION_TYPE": "U", "NORAD_CAT_ID": 10457, "ELEMENT_SET_NO": 999, "REV_AT_EPOCH": 36771, "BSTAR": 0.00011793617, "MEAN_MOTION_DOT": 8.4e-07, "MEAN_MOTION_DDOT": 0}, "tle": {"line1": "1 10457U 77106A   25348.79916462  .00000084  00000+0  11794-3 0  9990", "line2": "2 10457  89.6482  78.5241 0025593 183.5160 288.9959 13.48943950367711"}}, "geometry": {"type": "Point", "coordinates": [-101.67932265471482, 26.334639758187993]}}, {"type": "Feature", "properties": {"norad_id": 12458, "name": "NOVA 1", "group": "nnss", "lat": 30.617146250073386, "lon": -88.74305005393528, "alt_km": 1163.2594646515654, "timestamp": "2025-12-15T14:57:58.083525+00:00", "meta": {"OBJECT_NAME": "NOVA 1", "OBJECT_ID": "1981-044A", "EPOCH": "2025-12-14T20:41:11.154624", "MEAN_MOTION": 13.23278711, "ECCENTRICITY": 0.00159174, "INCLINATION": 89.8525, "RA_OF_ASC_NODE": 91.3551, "ARG_OF_PERICENTER": 98.7846, "MEAN_ANOMALY": 24.0904, "EPHEMERIS_TYPE": 0, "CLASSIFICATION_TYPE": "U", "NORAD_CAT_ID": 12458, "ELEMENT_SET_NO": 999, "REV_AT_EPOCH": 15214, "BSTAR": 0.00010101273, "MEAN_MOTION_DOT": 5.2e-07, "MEAN_MOTION_DDOT": 0}, "tle": {"line1": "1 12458U 81044A   25348.86193466  .00000052  00000+0  10101-3 0  9994", "line2": "2 12458  89.8525  91.3551 0015917  98.7846  24.0904 13.23278711152145"}}, "geometry": {"type": "Point", "coordinates": [-88.74305005393528, 30.617146250073386]}}, {"type": "Feature", "properties": {"norad_id": 15362, "name": "NOVA 3", "group": "nnss", "lat": 19.58665067138924, "lon": 80.52517436314632, "alt_km": 1160.2969003896605, "timestamp": "2025-12-15T14:57:58.083535+00:00", "meta": {"OBJECT_NAME": "NOVA 3", "OBJECT_ID": "1984-110A", "EPOCH": "2025-12-14T19:29:24.986400", "MEAN_MOTION": 13.23044807, "ECCENTRICITY": 0.0030352, "INCLINATION": 90.1224, "RA_OF_ASC_NODE": 80.5592, "ARG_OF_PERICENTER": 326.0104, "MEAN_ANOMALY": 150.5145, "EPHEMERIS_TYPE": 0, "CLASSIFICATION_TYPE": "U", "NORAD_CAT_ID": 15362, "ELEMENT_SET_NO": 999, "REV_AT_EPOCH": 98726, "BSTAR": 8.1888046e-05, "MEAN_MOTION_DOT": 4.3e-07, "MEAN_MOTION_DDOT": 0}, "tle": {"line1": "1 15362U 84110A   25348.81209475  .00000043  00000+0  81888-4 0  9992", "line2": "2 15362  90.1224  80.5592 0030352 326.0104 150.5145 13.23044807987260"}}, "geometry": {"type": "Point", "coordinates": [80.52517436314632, 19.58665067138924]}}, {"type": "Feature", "properties": {"norad_id": 15935, "name": "OSCAR 30", "group": "nnss", "lat": -56.037488747898735, "lon": -80.35145375605872, "alt_km": 1250.325709566694, "timestamp": "2025-12-15T14:57:58.083544+00:00", "meta": {"OBJECT_NAME": "OSCAR 30", "OBJECT_ID": "1985-066A", "EPOCH": "2025-12-14T20:22:32.017152", "MEAN_MOTION": 13.36078582, "ECCENTRICITY": 0.01693766, "INCLINATION": 90.1653, "RA_OF_ASC_NODE": 99.8815, "ARG_OF_PERICENTER": 78.0202, "MEAN_ANOMALY": 33.6979, "EPHEMERIS_TYPE": 0, "CLASSIFICATION_TYPE": "U", "NORAD_CAT_ID": 15935, "ELEMENT_SET_NO": 999, "REV_AT_EPOCH": 96481, "BSTAR": 0.00012434698, "MEAN_MOTION_DOT": 7.9e-07, "MEAN_MOTION_DDOT": 0}, "tle": {"line1": "1 15935U 85066A   25348.84898168  .00000079  00000+0  12435-3 0  9995", "line2": "2 15935  90.1653  99.8815 0169376  78.0202  33.6979 13.36078582964818"}}, "geometry": {"type": "Point", "coordinates": [-80.35145375605872, -56.037488747898735]}}, {"type": "Feature", "properties": {"norad_id": 15936, "name": "OSCAR 24", "group": "nnss", "lat": -52.31433389171906, "lon": 92.58830997510805, "alt_km": 1220.028305145669, "timestamp": "2025-12-15T14:57:58.083554+00:00", "meta": {"OBJECT_NAME": "OSCAR 24", "OBJECT_ID": "1985-066B", "EPOCH": "2025-12-14T20:00:30.218976", "MEAN_MOTION": 13.35936139, "ECCENTRICITY": 0.01704669, "INCLINATION": 90.1791, "RA_OF_ASC_NODE": 92.3424, "ARG_OF_PERICENTER": 84.4967, "MEAN_ANOMALY": 27.9488, "EPHEMERIS_TYPE": 0, "CLASSIFICATION_TYPE": "U", "NORAD_CAT_ID": 15936, "ELEMENT_SET_NO": 999, "REV_AT_EPOCH": 96671, "BSTAR": 0.00013138932, "MEAN_MOTION_DOT": 8.3e-07, "MEAN_MOTION_DDOT": 0}, "tle": {"line1": "1 15936U 85066B   25348.83368309  .00000083  00000+0  13139-3 0  9991", "line2": "2 15936  90.1791  92.3424 0170466  84.4967  27.9488 13.35936139966719"}}, "geometry": {"type": "Point", "coordinates": [92.58830997510805, -52.31433389171906]}}]}